ONEWEB-0045             
1 45151U 20008W   25030.52052041 -.00000079  00000+0 -25746-3 0  9999
2 45151  87.8902 121.2320 0001769 110.1005 250.0314 13.11419689244529
ONEWEB-0047             
1 45152U 20008X   25030.56406931 -.00000005  00000+0 -49825-4 0  9999
2 45152  87.8918 136.4268 0001607 107.1998 252.9305 13.10377088243169
ONEWEB-0048             
1 45153U 20008Y   25030.71177926 -.00000388  00000+0 -11485-2 0  9999
2 45153  87.8919 136.4175 0001615 104.8577 255.2730 13.10376474242776
ONEWEB-0049             
1 45154U 20008Z   25030.71344241 -.00000223  00000+0 -67498-3 0  9990
2 45154  87.8920 136.4049 0001472  86.9403 273.1892 13.10377478243008
ONEWEB-0051             
1 45155U 20008AA  25030.51881320 -.00000224  00000+0 -66724-3 0  9995
2 45155  87.8903 121.2753 0001853 105.1403 254.9930 13.11417851245206
ONEWEB-0052             
1 45156U 20008AB  25030.71011886 -.00000554  00000+0 -16246-2 0  9999
2 45156  87.8914 136.3602 0001334  89.5649 270.5631 13.10375570242894
ONEWEB-0053             
1 45157U 20008AC  25030.53914794 -.00000487  00000+0 -14302-2 0  9996
2 45157  87.8915 136.4521 0001534 119.9202 240.2078 13.10370417242087
ONEWEB-0054             
1 45158U 20008AD  25030.72673751  .00000440  00000+0  12239-2 0  9997
2 45158  87.8914 136.3924 0001715 104.6824 255.4493 13.10375768242987
